[{"OBJECT_NAME":"STARLINK-3999","OBJECT_ID":"2022-053BA","EPOCH":"2026-03-09T13:21:57.367872","MEAN_MOTION":15.08835858,"ECCENTRICITY":0.0001438,"INCLINATION":53.2175,"RA_OF_ASC_NODE":134.7197,"ARG_OF_PERICENTER":89.2563,"MEAN_ANOMALY":270.8594,"EPHEMERIS_TYPE":0,"CLASSIFICATION_TYPE":"U","NORAD_CAT_ID":52704,"ELEMENT_SET_NO":999,"REV_AT_EPOCH":21129,"BSTAR":-2.901e-5,"MEAN_MOTION_DOT":-7.5e-6,"MEAN_MOTION_DDOT":0},{"OBJECT_NAME":"PACE","OBJECT_ID":"2014-033N","EPOCH":"2026-03-09T22:47:44.809152","MEAN_MOTION":15.09745465,"ECCENTRICITY":0.00061206,"INCLINATION":98.125,"RA_OF_ASC_NODE":67.7953,"ARG_OF_PERICENTER":179.3374,"MEAN_ANOMALY":180.7863,"EPHEMERIS_TYPE":0,"CLASSIFICATION_TYPE":"U","NORAD_CAT_ID":40022,"ELEMENT_SET_NO":999,"REV_AT_EPOCH":63805,"BSTAR":0.00051174262,"MEAN_MOTION_DOT":8.193e-5,"MEAN_MOTION_DDOT":0}]
